AETHER-2                
1 58299U 23174AV  26068.71793741  .00008341  00000+0  26166-3 0  9990
2 58299  97.3931 151.9008 0008630 139.5247 220.6639 15.33264165129982
STARLINK-32798          
1 63029U 25034A   26068.85037669  .00029759  00000+0  10128-2 0  9995
2 63029  53.1575 270.0070 0000822  70.6061 289.5028 15.30200436 58939
